{
 "type": "FeatureCollection",
 "name": "windrow_sites",
 "metadata": {
  "generated": "pipeline/r1_build_sites.py",
  "notes": "EP + far west grain receival sites. Coordinates: operator API (facility) or OSM town nodes (town). Bunge upcountry capacities are NOT published: those carry capacity_estimated=true and an estimate allocated by PIRSA district (ASSUMPTIONS.md A4). capacity_estimated=false marks the five published figures.",
  "attribution": [
   "Site data (c) Bunge/Viterra operator API",
   "OpenStreetMap contributors (ODbL) for town coordinates"
  ]
 },
 "features": [
  {
   "type": "Feature",
   "geometry": {
    "type": "Point",
    "coordinates": [
     135.5967434,
     -33.2438181
    ]
   },
   "properties": {
    "name": "Warramboo",
    "operator": "Bunge (ex-Viterra)",
    "role": "upcountry",
    "status": "active_2025_26",
    "coord_precision": "facility",
    "coord_source": "operator API mobilews.viterra.com.au/api/Sites/01bba3f2-4269-4181-871e-a91301835869 (retrieved 2026-08-19)",
    "commodities_2025_26": [
     "WH",
     "BA"
    ],
    "commodities_source": "https://www.bunge.com.au/agriculture/delivering-to-sa-vic-sites/segregations-and-opening-hours (live table read 2026-08-19)",
    "capacity_t": 72700,
    "capacity_provenance": "estimated (not published): A4 method - long-run district receivals share (mean PIRSA district production 2022/23-2025/26) allocated across that district's Bunge upcountry sites, scaled so all 21 of them total 2.54 Mt (max Western season receivals 3.27 Mt - published Western port storage 0.73 Mt)",
    "region": "western",
    "nearest_osm_silo_m": 143,
    "operating_seasons": [
     "2018/19",
     "2020/21",
     "2022/23",
     "2023/24",
     "2024/25",
     "2025/26"
    ],
    "operating_seasons_source": "operator weekly harvest reports (data/processed/receivals_notes.jsonl); positive evidence only - absence of a mention is NOT evidence of closure",
    "operating_evidence": "[2025-11-16] \u201cHarvest kicked off at our Buckleboo, Elliston, Penong, Poochera and Warramboo sites with the first deliveries for the season coming in,\u201d Nick says.",
    "district": "WEP",
    "capacity_estimated": true
   }
  },
  {
   "type": "Feature",
   "geometry": {
    "type": "Point",
    "coordinates": [
     134.5327607,
     -32.4057324
    ]
   },
   "properties": {
    "name": "Wirrulla",
    "operator": "Bunge (ex-Viterra)",
    "role": "upcountry",
    "status": "active_2025_26",
    "coord_precision": "facility",
    "coord_source": "operator API mobilews.viterra.com.au/api/Sites/0959c42a-4921-41e9-b827-a91301835869 (retrieved 2026-08-19)",
    "commodities_2025_26": [
     "WH"
    ],
    "commodities_source": "https://www.bunge.com.au/agriculture/delivering-to-sa-vic-sites/segregations-and-opening-hours (live table read 2026-08-19)",
    "capacity_t": 72700,
    "capacity_provenance": "estimated (not published): A4 method - long-run district receivals share (mean PIRSA district production 2022/23-2025/26) allocated across that district's Bunge upcountry sites, scaled so all 21 of them total 2.54 Mt (max Western season receivals 3.27 Mt - published Western port storage 0.73 Mt)",
    "region": "western",
    "nearest_osm_silo_m": 101,
    "operating_seasons": [
     "2018/19",
     "2020/21",
     "2022/23",
     "2023/24",
     "2024/25",
     "2025/26"
    ],
    "operating_seasons_source": "operator weekly harvest reports (data/processed/receivals_notes.jsonl); positive evidence only - absence of a mention is NOT evidence of closure",
    "operating_evidence": "[2025-11-09] Another five sites received their first 2025/26 season deliveries; Lock, Rudall, Tumby Bay, Wirrulla and Cummins on the Eyre Peninsula.",
    "district": "WEP",
    "capacity_estimated": true
   }
  },
  {
   "type": "Feature",
   "geometry": {
    "type": "Point",
    "coordinates": [
     133.0114887,
     -31.931395
    ]
   },
   "properties": {
    "name": "Penong",
    "operator": "Bunge (ex-Viterra)",
    "role": "upcountry",
    "status": "active_2025_26",
    "coord_precision": "facility",
    "coord_source": "operator API mobilews.viterra.com.au/api/Sites/1436f217-8ded-4bc6-989e-a91301835864 (retrieved 2026-08-19)",
    "commodities_2025_26": [],
    "commodities_source": "https://www.bunge.com.au/agriculture/delivering-to-sa-vic-sites/segregations-and-opening-hours (live table read 2026-08-19)",
    "capacity_t": 72700,
    "capacity_provenance": "estimated (not published): A4 method - long-run district receivals share (mean PIRSA district production 2022/23-2025/26) allocated across that district's Bunge upcountry sites, scaled so all 21 of them total 2.54 Mt (max Western season receivals 3.27 Mt - published Western port storage 0.73 Mt)",
    "region": "western",
    "nearest_osm_silo_m": 131,
    "operating_seasons": [
     "2019/20",
     "2020/21",
     "2022/23",
     "2023/24",
     "2024/25",
     "2025/26"
    ],
    "operating_seasons_source": "operator weekly harvest reports (data/processed/receivals_notes.jsonl); positive evidence only - absence of a mention is NOT evidence of closure",
    "operating_evidence": "[2025-11-16] \u201cHarvest kicked off at our Buckleboo, Elliston, Penong, Poochera and Warramboo sites with the first deliveries for the season coming in,\u201d Nick says.",
    "status_provenance": "corrected: off-season segregations read listed none, but the operator's own 2025/26 weekly report names it receiving - [2025-11-16] \u201cHarvest kicked off at our Buckleboo, Elliston, Penong, Poochera and Warramboo sites with the first deliveries for the season coming in,\u201d Nick says.",
    "district": "WEP",
    "capacity_estimated": true
   }
  },
  {
   "type": "Feature",
   "geometry": {
    "type": "Point",
    "coordinates": [
     136.0797535,
     -34.3635111
    ]
   },
   "properties": {
    "name": "Tumby Bay",
    "operator": "Bunge (ex-Viterra)",
    "role": "upcountry",
    "status": "active_2025_26",
    "coord_precision": "facility",
    "coord_source": "operator API mobilews.viterra.com.au/api/Sites/21ceaa7d-5267-47fd-bdfe-a91301835864 (retrieved 2026-08-19)",
    "commodities_2025_26": [
     "BA",
     "FB",
     "CA",
     "WH",
     "LE"
    ],
    "commodities_source": "https://www.bunge.com.au/agriculture/delivering-to-sa-vic-sites/segregations-and-opening-hours (live table read 2026-08-19)",
    "capacity_t": 162900,
    "capacity_provenance": "estimated (not published): A4 method - long-run district receivals share (mean PIRSA district production 2022/23-2025/26) allocated across that district's Bunge upcountry sites, scaled so all 21 of them total 2.54 Mt (max Western season receivals 3.27 Mt - published Western port storage 0.73 Mt)",
    "region": "western",
    "nearest_osm_silo_m": 821,
    "operating_seasons": [
     "2016/17",
     "2017/18",
     "2019/20",
     "2020/21",
     "2021/22",
     "2022/23",
     "2023/24",
     "2024/25",
     "2025/26"
    ],
    "operating_seasons_source": "operator weekly harvest reports (data/processed/receivals_notes.jsonl); positive evidence only - absence of a mention is NOT evidence of closure",
    "operating_evidence": "[2025-11-09] Another five sites received their first 2025/26 season deliveries; Lock, Rudall, Tumby Bay, Wirrulla and Cummins on the Eyre Peninsula.",
    "district": "LEP",
    "capacity_estimated": true
   }
  },
  {
   "type": "Feature",
   "geometry": {
    "type": "Point",
    "coordinates": [
     135.729119,
     -34.1393452
    ]
   },
   "properties": {
    "name": "Yeelanna",
    "operator": "Bunge (ex-Viterra)",
    "role": "upcountry",
    "status": "active_2025_26",
    "coord_precision": "facility",
    "coord_source": "operator API mobilews.viterra.com.au/api/Sites/231abea8-18da-4c77-b770-a91301835869 (retrieved 2026-08-19)",
    "commodities_2025_26": [
     "FB"
    ],
    "commodities_source": "https://www.bunge.com.au/agriculture/delivering-to-sa-vic-sites/segregations-and-opening-hours (live table read 2026-08-19)",
    "capacity_t": 162900,
    "capacity_provenance": "estimated (not published): A4 method - long-run district receivals share (mean PIRSA district production 2022/23-2025/26) allocated across that district's Bunge upcountry sites, scaled so all 21 of them total 2.54 Mt (max Western season receivals 3.27 Mt - published Western port storage 0.73 Mt)",
    "region": "western",
    "nearest_osm_silo_m": 186,
    "operating_seasons": [
     "2022/23",
     "2023/24",
     "2024/25",
     "2025/26"
    ],
    "operating_seasons_source": "operator weekly harvest reports (data/processed/receivals_notes.jsonl); positive evidence only - absence of a mention is NOT evidence of closure",
    "operating_evidence": "[2025-11-23] \u201cHarvest has now kicked off at our Darke Peak, Streaky Bay, Yeelanna, Karoonda and Monarto South sites, bringing us to 40 sites receiving grain,\u201d Gavin says.",
    "district": "LEP",
    "capacity_estimated": true
   }
  },
  {
   "type": "Feature",
   "geometry": {
    "type": "Point",
    "coordinates": [
     135.4963057,
     -34.1363479
    ]
   },
   "properties": {
    "name": "Kapinnie",
    "operator": "Bunge (ex-Viterra)",
    "role": "upcountry",
    "status": "active_2025_26",
    "coord_precision": "facility",
    "coord_source": "operator API mobilews.viterra.com.au/api/Sites/31c0f72b-6156-4b31-a0e2-a91301835864 (retrieved 2026-08-19)",
    "commodities_2025_26": [
     "FB"
    ],
    "commodities_source": "https://www.bunge.com.au/agriculture/delivering-to-sa-vic-sites/segregations-and-opening-hours (live table read 2026-08-19)",
    "capacity_t": 162900,
    "capacity_provenance": "estimated (not published): A4 method - long-run district receivals share (mean PIRSA district production 2022/23-2025/26) allocated across that district's Bunge upcountry sites, scaled so all 21 of them total 2.54 Mt (max Western season receivals 3.27 Mt - published Western port storage 0.73 Mt)",
    "region": "western",
    "nearest_osm_silo_m": 199,
    "operating_seasons": [
     "2019/20",
     "2022/23",
     "2023/24",
     "2024/25"
    ],
    "operating_seasons_source": "operator weekly harvest reports (data/processed/receivals_notes.jsonl); positive evidence only - absence of a mention is NOT evidence of closure",
    "operating_evidence": "[2024-11-24] Wheat made up two thirds of the delivered tonnes and four more Viterra sites welcomed their first 2024/25 harvest deliveries, including Kapinnie, Saddleworth, Keith and Wolseley.",
    "district": "LEP",
    "capacity_estimated": true
   }
  },
  {
   "type": "Feature",
   "geometry": {
    "type": "Point",
    "coordinates": [
     134.3396356,
     -32.2688303
    ]
   },
   "properties": {
    "name": "Nunjikompita",
    "operator": "Bunge (ex-Viterra)",
    "role": "upcountry",
    "status": "dormant",
    "coord_precision": "facility",
    "coord_source": "operator API mobilews.viterra.com.au/api/Sites/3a5f0288-fe75-42f1-bc2b-a91301835864 (retrieved 2026-08-19)",
    "commodities_2025_26": [],
    "commodities_source": "https://www.bunge.com.au/agriculture/delivering-to-sa-vic-sites/segregations-and-opening-hours (live table read 2026-08-19)",
    "capacity_t": 72700,
    "capacity_provenance": "estimated (not published): A4 method - long-run district receivals share (mean PIRSA district production 2022/23-2025/26) allocated across that district's Bunge upcountry sites, scaled so all 21 of them total 2.54 Mt (max Western season receivals 3.27 Mt - published Western port storage 0.73 Mt)",
    "region": "western",
    "nearest_osm_silo_m": 108,
    "operating_seasons": [
     "2022/23",
     "2023/24"
    ],
    "operating_seasons_source": "operator weekly harvest reports (data/processed/receivals_notes.jsonl); positive evidence only - absence of a mention is NOT evidence of closure",
    "operating_evidence": "[2023-10-15] Nine sites received their first 2023/24 harvest loads during the week including Port Lincoln, Rudall, Witera, Tumby Bay, and Nunjikompita in the Western region and Ardrossan, Rosew",
    "district": "WEP",
    "capacity_estimated": true
   }
  },
  {
   "type": "Feature",
   "geometry": {
    "type": "Point",
    "coordinates": [
     136.4291747,
     -33.1223249
    ]
   },
   "properties": {
    "name": "Kimba",
    "operator": "Bunge (ex-Viterra)",
    "role": "upcountry",
    "status": "active_2025_26",
    "coord_precision": "facility",
    "coord_source": "operator API mobilews.viterra.com.au/api/Sites/4424de83-03cc-4482-a28e-a91301835864 (retrieved 2026-08-19)",
    "commodities_2025_26": [
     "LE",
     "WH",
     "BA"
    ],
    "commodities_source": "https://www.bunge.com.au/agriculture/delivering-to-sa-vic-sites/segregations-and-opening-hours (live table read 2026-08-19)",
    "capacity_t": 166200,
    "capacity_provenance": "estimated (not published): A4 method - long-run district receivals share (mean PIRSA district production 2022/23-2025/26) allocated across that district's Bunge upcountry sites, scaled so all 21 of them total 2.54 Mt (max Western season receivals 3.27 Mt - published Western port storage 0.73 Mt)",
    "region": "western",
    "nearest_osm_silo_m": 1906,
    "operating_seasons": [
     "2019/20",
     "2020/21",
     "2021/22",
     "2022/23",
     "2023/24",
     "2024/25",
     "2025/26"
    ],
    "operating_seasons_source": "operator weekly harvest reports (data/processed/receivals_notes.jsonl); positive evidence only - absence of a mention is NOT evidence of closure",
    "operating_evidence": "[2025-11-02] In addition to Inner Harbour and Pinnaroo, Bunge sites to receive the first 2025/26 harvest deliveries included Kimba, Witera and Wudinna in the Western region, and Ardrossan, Bowm",
    "district": "EEP",
    "capacity_estimated": true
   }
  },
  {
   "type": "Feature",
   "geometry": {
    "type": "Point",
    "coordinates": [
     136.1986788,
     -33.4682081
    ]
   },
   "properties": {
    "name": "Darke Peak",
    "operator": "Bunge (ex-Viterra)",
    "role": "upcountry",
    "status": "active_2025_26",
    "coord_precision": "facility",
    "coord_source": "operator API mobilews.viterra.com.au/api/Sites/4a6f63f5-00d4-46e4-9fc8-a9130183585f (retrieved 2026-08-19)",
    "commodities_2025_26": [],
    "commodities_source": "https://www.bunge.com.au/agriculture/delivering-to-sa-vic-sites/segregations-and-opening-hours (live table read 2026-08-19)",
    "capacity_t": 166200,
    "capacity_provenance": "estimated (not published): A4 method - long-run district receivals share (mean PIRSA district production 2022/23-2025/26) allocated across that district's Bunge upcountry sites, scaled so all 21 of them total 2.54 Mt (max Western season receivals 3.27 Mt - published Western port storage 0.73 Mt)",
    "region": "western",
    "nearest_osm_silo_m": 166,
    "operating_seasons": [
     "2018/19",
     "2022/23",
     "2023/24",
     "2024/25",
     "2025/26"
    ],
    "operating_seasons_source": "operator weekly harvest reports (data/processed/receivals_notes.jsonl); positive evidence only - absence of a mention is NOT evidence of closure",
    "operating_evidence": "[2025-11-23] \u201cHarvest has now kicked off at our Darke Peak, Streaky Bay, Yeelanna, Karoonda and Monarto South sites, bringing us to 40 sites receiving grain,\u201d Gavin says.",
    "status_provenance": "corrected: off-season segregations read listed none, but the operator's own 2025/26 weekly report names it receiving - [2025-11-23] \u201cHarvest has now kicked off at our Darke Peak, Streaky Bay, Yeelanna, Karoonda and Monarto South sites, bringing us to 40 sites receiving grain,\u201d Gavin says.",
    "district": "EEP",
    "capacity_estimated": true
   }
  },
  {
   "type": "Feature",
   "geometry": {
    "type": "Point",
    "coordinates": [
     135.7277442,
     -34.2713037
    ]
   },
   "properties": {
    "name": "Cummins",
    "operator": "Bunge (ex-Viterra)",
    "role": "upcountry",
    "status": "active_2025_26",
    "coord_precision": "facility",
    "coord_source": "operator API mobilews.viterra.com.au/api/Sites/62c0060c-1f42-4853-bbfb-a9130183585f (retrieved 2026-08-19)",
    "commodities_2025_26": [
     "WH",
     "BA",
     "CA",
     "LE"
    ],
    "commodities_source": "https://www.bunge.com.au/agriculture/delivering-to-sa-vic-sites/segregations-and-opening-hours (live table read 2026-08-19)",
    "capacity_t": 162900,
    "capacity_provenance": "estimated (not published): A4 method - long-run district receivals share (mean PIRSA district production 2022/23-2025/26) allocated across that district's Bunge upcountry sites, scaled so all 21 of them total 2.54 Mt (max Western season receivals 3.27 Mt - published Western port storage 0.73 Mt)",
    "region": "western",
    "nearest_osm_silo_m": 345,
    "operating_seasons": [
     "2016/17",
     "2017/18",
     "2018/19",
     "2019/20",
     "2020/21",
     "2021/22",
     "2022/23",
     "2023/24",
     "2024/25",
     "2025/26"
    ],
    "operating_seasons_source": "operator weekly harvest reports (data/processed/receivals_notes.jsonl); positive evidence only - absence of a mention is NOT evidence of closure",
    "operating_evidence": "[2025-11-09] Another five sites received their first 2025/26 season deliveries; Lock, Rudall, Tumby Bay, Wirrulla and Cummins on the Eyre Peninsula.",
    "district": "LEP",
    "capacity_estimated": true
   }
  },
  {
   "type": "Feature",
   "geometry": {
    "type": "Point",
    "coordinates": [
     135.7083676,
     -34.4111499
    ]
   },
   "properties": {
    "name": "Edillilie",
    "operator": "Bunge (ex-Viterra)",
    "role": "upcountry",
    "status": "active_2025_26",
    "coord_precision": "facility",
    "coord_source": "operator API mobilews.viterra.com.au/api/Sites/68964248-83c7-4285-a7f0-a9130183585f (retrieved 2026-08-19)",
    "commodities_2025_26": [
     "CA"
    ],
    "commodities_source": "https://www.bunge.com.au/agriculture/delivering-to-sa-vic-sites/segregations-and-opening-hours (live table read 2026-08-19)",
    "capacity_t": 162900,
    "capacity_provenance": "estimated (not published): A4 method - long-run district receivals share (mean PIRSA district production 2022/23-2025/26) allocated across that district's Bunge upcountry sites, scaled so all 21 of them total 2.54 Mt (max Western season receivals 3.27 Mt - published Western port storage 0.73 Mt)",
    "region": "western",
    "nearest_osm_silo_m": 153,
    "operating_seasons": [
     "2022/23",
     "2023/24",
     "2024/25",
     "2025/26"
    ],
    "operating_seasons_source": "operator weekly harvest reports (data/processed/receivals_notes.jsonl); positive evidence only - absence of a mention is NOT evidence of closure",
    "operating_evidence": "[2025-12-07] \u201cEdillilie received its first delivery last week as farmers in the lower EP move to harvesting canola.\u201d Bunge Central region Operations Manager, Jack Tansley says the second half o",
    "district": "LEP",
    "capacity_estimated": true
   }
  },
  {
   "type": "Feature",
   "geometry": {
    "type": "Point",
    "coordinates": [
     134.835676,
     -32.7205167
    ]
   },
   "properties": {
    "name": "Poochera",
    "operator": "Bunge (ex-Viterra)",
    "role": "upcountry",
    "status": "active_2025_26",
    "coord_precision": "facility",
    "coord_source": "operator API mobilews.viterra.com.au/api/Sites/702a6089-ee19-45ae-a7d6-a91301835864 (retrieved 2026-08-19)",
    "commodities_2025_26": [
     "WH",
     "BA"
    ],
    "commodities_source": "https://www.bunge.com.au/agriculture/delivering-to-sa-vic-sites/segregations-and-opening-hours (live table read 2026-08-19)",
    "capacity_t": 72700,
    "capacity_provenance": "estimated (not published): A4 method - long-run district receivals share (mean PIRSA district production 2022/23-2025/26) allocated across that district's Bunge upcountry sites, scaled so all 21 of them total 2.54 Mt (max Western season receivals 3.27 Mt - published Western port storage 0.73 Mt)",
    "region": "western",
    "nearest_osm_silo_m": 219,
    "operating_seasons": [
     "2017/18",
     "2023/24",
     "2024/25",
     "2025/26"
    ],
    "operating_seasons_source": "operator weekly harvest reports (data/processed/receivals_notes.jsonl); positive evidence only - absence of a mention is NOT evidence of closure",
    "operating_evidence": "[2025-11-16] \u201cHarvest kicked off at our Buckleboo, Elliston, Penong, Poochera and Warramboo sites with the first deliveries for the season coming in,\u201d Nick says.",
    "district": "WEP",
    "capacity_estimated": true
   }
  },
  {
   "type": "Feature",
   "geometry": {
    "type": "Point",
    "coordinates": [
     135.7603113,
     -33.5743896
    ]
   },
   "properties": {
    "name": "Lock",
    "operator": "Bunge (ex-Viterra)",
    "role": "upcountry",
    "status": "active_2025_26",
    "coord_precision": "facility",
    "coord_source": "operator API mobilews.viterra.com.au/api/Sites/75a032fe-a959-41d3-9894-a91301835864 (retrieved 2026-08-19)",
    "commodities_2025_26": [
     "LE",
     "WH",
     "BA"
    ],
    "commodities_source": "https://www.bunge.com.au/agriculture/delivering-to-sa-vic-sites/segregations-and-opening-hours (live table read 2026-08-19)",
    "capacity_t": 72700,
    "capacity_provenance": "estimated (not published): A4 method - long-run district receivals share (mean PIRSA district production 2022/23-2025/26) allocated across that district's Bunge upcountry sites, scaled so all 21 of them total 2.54 Mt (max Western season receivals 3.27 Mt - published Western port storage 0.73 Mt)",
    "region": "western",
    "nearest_osm_silo_m": 611,
    "operating_seasons": [
     "2016/17",
     "2019/20",
     "2020/21",
     "2021/22",
     "2022/23",
     "2023/24",
     "2024/25",
     "2025/26"
    ],
    "operating_seasons_source": "operator weekly harvest reports (data/processed/receivals_notes.jsonl); positive evidence only - absence of a mention is NOT evidence of closure",
    "operating_evidence": "[2025-11-09] Another five sites received their first 2025/26 season deliveries; Lock, Rudall, Tumby Bay, Wirrulla and Cummins on the Eyre Peninsula.",
    "district": "WEP",
    "capacity_estimated": true
   }
  },
  {
   "type": "Feature",
   "geometry": {
    "type": "Point",
    "coordinates": [
     136.5609944,
     -33.9047546
    ]
   },
   "properties": {
    "name": "Arno Bay",
    "operator": "Bunge (ex-Viterra)",
    "role": "upcountry",
    "status": "active_2025_26",
    "coord_precision": "facility",
    "coord_source": "operator API mobilews.viterra.com.au/api/Sites/7d570b00-1650-4d79-a7af-a9130183585f (retrieved 2026-08-19)",
    "commodities_2025_26": [
     "WH",
     "BA",
     "LE"
    ],
    "commodities_source": "https://www.bunge.com.au/agriculture/delivering-to-sa-vic-sites/segregations-and-opening-hours (live table read 2026-08-19)",
    "capacity_t": 166200,
    "capacity_provenance": "estimated (not published): A4 method - long-run district receivals share (mean PIRSA district production 2022/23-2025/26) allocated across that district's Bunge upcountry sites, scaled so all 21 of them total 2.54 Mt (max Western season receivals 3.27 Mt - published Western port storage 0.73 Mt)",
    "region": "western",
    "nearest_osm_silo_m": 470,
    "operating_seasons": [
     "2016/17",
     "2017/18",
     "2020/21",
     "2021/22",
     "2022/23",
     "2023/24",
     "2024/25",
     "2025/26"
    ],
    "operating_seasons_source": "operator weekly harvest reports (data/processed/receivals_notes.jsonl); positive evidence only - absence of a mention is NOT evidence of closure",
    "operating_evidence": "[2025-10-19] On Thursday our Arno Bay site also welcomed its first delivery for the harvest, a load of barley.",
    "district": "EEP",
    "capacity_estimated": true
   }
  },
  {
   "type": "Feature",
   "geometry": {
    "type": "Point",
    "coordinates": [
     134.5918772,
     -33.0934072
    ]
   },
   "properties": {
    "name": "Witera",
    "operator": "Bunge (ex-Viterra)",
    "role": "upcountry",
    "status": "active_2025_26",
    "coord_precision": "facility",
    "coord_source": "operator API mobilews.viterra.com.au/api/Sites/8192c9f4-de01-4b6f-ba2b-a91301835869 (retrieved 2026-08-19)",
    "commodities_2025_26": [
     "WH",
     "BA"
    ],
    "commodities_source": "https://www.bunge.com.au/agriculture/delivering-to-sa-vic-sites/segregations-and-opening-hours (live table read 2026-08-19)",
    "capacity_t": 72700,
    "capacity_provenance": "estimated (not published): A4 method - long-run district receivals share (mean PIRSA district production 2022/23-2025/26) allocated across that district's Bunge upcountry sites, scaled so all 21 of them total 2.54 Mt (max Western season receivals 3.27 Mt - published Western port storage 0.73 Mt)",
    "region": "western",
    "nearest_osm_silo_m": 47,
    "operating_seasons": [
     "2016/17",
     "2020/21",
     "2021/22",
     "2022/23",
     "2023/24",
     "2024/25",
     "2025/26"
    ],
    "operating_seasons_source": "operator weekly harvest reports (data/processed/receivals_notes.jsonl); positive evidence only - absence of a mention is NOT evidence of closure",
    "operating_evidence": "[2025-11-02] In addition to Inner Harbour and Pinnaroo, Bunge sites to receive the first 2025/26 harvest deliveries included Kimba, Witera and Wudinna in the Western region, and Ardrossan, Bowm",
    "district": "WEP",
    "capacity_estimated": true
   }
  },
  {
   "type": "Feature",
   "geometry": {
    "type": "Point",
    "coordinates": [
     136.3019841,
     -34.1260984
    ]
   },
   "properties": {
    "name": "Port Neill",
    "operator": "Bunge (ex-Viterra)",
    "role": "upcountry",
    "status": "active_2025_26",
    "coord_precision": "facility",
    "coord_source": "operator API mobilews.viterra.com.au/api/Sites/a03922f7-bac7-43bc-a97e-a91301835864 (retrieved 2026-08-19)",
    "commodities_2025_26": [
     "CA"
    ],
    "commodities_source": "https://www.bunge.com.au/agriculture/delivering-to-sa-vic-sites/segregations-and-opening-hours (live table read 2026-08-19)",
    "capacity_t": 162900,
    "capacity_provenance": "estimated (not published): A4 method - long-run district receivals share (mean PIRSA district production 2022/23-2025/26) allocated across that district's Bunge upcountry sites, scaled so all 21 of them total 2.54 Mt (max Western season receivals 3.27 Mt - published Western port storage 0.73 Mt)",
    "region": "western",
    "nearest_osm_silo_m": 108,
    "operating_seasons": [
     "2020/21",
     "2021/22",
     "2022/23",
     "2023/24",
     "2024/25",
     "2025/26"
    ],
    "operating_seasons_source": "operator weekly harvest reports (data/processed/receivals_notes.jsonl); positive evidence only - absence of a mention is NOT evidence of closure",
    "operating_evidence": "[2025-10-26] Our Port Lincoln, Port Neill and Port Pirie sites also received their first deliveries for the harvest during the week.",
    "district": "LEP",
    "capacity_estimated": true
   }
  },
  {
   "type": "Feature",
   "geometry": {
    "type": "Point",
    "coordinates": [
     136.2116733,
     -32.9230596
    ]
   },
   "properties": {
    "name": "Buckleboo",
    "operator": "Bunge (ex-Viterra)",
    "role": "upcountry",
    "status": "active_2025_26",
    "coord_precision": "facility",
    "coord_source": "operator API mobilews.viterra.com.au/api/Sites/b89e1868-2309-47b6-b26b-a9130183585f (retrieved 2026-08-19)",
    "commodities_2025_26": [],
    "commodities_source": "https://www.bunge.com.au/agriculture/delivering-to-sa-vic-sites/segregations-and-opening-hours (live table read 2026-08-19)",
    "capacity_t": 166200,
    "capacity_provenance": "estimated (not published): A4 method - long-run district receivals share (mean PIRSA district production 2022/23-2025/26) allocated across that district's Bunge upcountry sites, scaled so all 21 of them total 2.54 Mt (max Western season receivals 3.27 Mt - published Western port storage 0.73 Mt)",
    "region": "western",
    "nearest_osm_silo_m": 129,
    "operating_seasons": [
     "2018/19",
     "2019/20",
     "2022/23",
     "2023/24",
     "2024/25",
     "2025/26"
    ],
    "operating_seasons_source": "operator weekly harvest reports (data/processed/receivals_notes.jsonl); positive evidence only - absence of a mention is NOT evidence of closure",
    "operating_evidence": "[2025-11-16] \u201cHarvest kicked off at our Buckleboo, Elliston, Penong, Poochera and Warramboo sites with the first deliveries for the season coming in,\u201d Nick says.",
    "status_provenance": "corrected: off-season segregations read listed none, but the operator's own 2025/26 weekly report names it receiving - [2025-11-16] \u201cHarvest kicked off at our Buckleboo, Elliston, Penong, Poochera and Warramboo sites with the first deliveries for the season coming in,\u201d Nick says.",
    "district": "EEP",
    "capacity_estimated": true
   }
  },
  {
   "type": "Feature",
   "geometry": {
    "type": "Point",
    "coordinates": [
     134.8842745,
     -33.6360271
    ]
   },
   "properties": {
    "name": "Elliston",
    "operator": "Bunge (ex-Viterra)",
    "role": "upcountry",
    "status": "active_2025_26",
    "coord_precision": "facility",
    "coord_source": "operator API mobilews.viterra.com.au/api/Sites/c90de8a9-a1c7-4c0a-91ad-a9130183585f (retrieved 2026-08-19)",
    "commodities_2025_26": [],
    "commodities_source": "https://www.bunge.com.au/agriculture/delivering-to-sa-vic-sites/segregations-and-opening-hours (live table read 2026-08-19)",
    "capacity_t": 72700,
    "capacity_provenance": "estimated (not published): A4 method - long-run district receivals share (mean PIRSA district production 2022/23-2025/26) allocated across that district's Bunge upcountry sites, scaled so all 21 of them total 2.54 Mt (max Western season receivals 3.27 Mt - published Western port storage 0.73 Mt)",
    "region": "western",
    "nearest_osm_silo_m": 50,
    "operating_seasons": [
     "2018/19",
     "2022/23",
     "2023/24",
     "2024/25",
     "2025/26"
    ],
    "operating_seasons_source": "operator weekly harvest reports (data/processed/receivals_notes.jsonl); positive evidence only - absence of a mention is NOT evidence of closure",
    "operating_evidence": "[2025-11-16] \u201cHarvest kicked off at our Buckleboo, Elliston, Penong, Poochera and Warramboo sites with the first deliveries for the season coming in,\u201d Nick says.",
    "status_provenance": "corrected: off-season segregations read listed none, but the operator's own 2025/26 weekly report names it receiving - [2025-11-16] \u201cHarvest kicked off at our Buckleboo, Elliston, Penong, Poochera and Warramboo sites with the first deliveries for the season coming in,\u201d Nick says.",
    "district": "WEP",
    "capacity_estimated": true
   }
  },
  {
   "type": "Feature",
   "geometry": {
    "type": "Point",
    "coordinates": [
     135.45925,
     -33.047367
    ]
   },
   "properties": {
    "name": "Wudinna",
    "operator": "Bunge (ex-Viterra)",
    "role": "upcountry",
    "status": "active_2025_26",
    "coord_precision": "facility",
    "coord_source": "operator API mobilews.viterra.com.au/api/Sites/ca3836aa-094c-4d9c-80d0-a91301835869 (retrieved 2026-08-19)",
    "commodities_2025_26": [
     "WH",
     "BA",
     "LE"
    ],
    "commodities_source": "https://www.bunge.com.au/agriculture/delivering-to-sa-vic-sites/segregations-and-opening-hours (live table read 2026-08-19)",
    "capacity_t": 72700,
    "capacity_provenance": "estimated (not published): A4 method - long-run district receivals share (mean PIRSA district production 2022/23-2025/26) allocated across that district's Bunge upcountry sites, scaled so all 21 of them total 2.54 Mt (max Western season receivals 3.27 Mt - published Western port storage 0.73 Mt)",
    "region": "western",
    "nearest_osm_silo_m": 210,
    "operating_seasons": [
     "2016/17",
     "2019/20",
     "2020/21",
     "2021/22",
     "2022/23",
     "2023/24",
     "2024/25",
     "2025/26"
    ],
    "operating_seasons_source": "operator weekly harvest reports (data/processed/receivals_notes.jsonl); positive evidence only - absence of a mention is NOT evidence of closure",
    "operating_evidence": "[2025-10-19] This includes four new drive-over hopper stackers across the Bunge network, a second inwards weighbridge at Tailem Bend, and an additional classification office at Wudinna to suppo",
    "district": "WEP",
    "capacity_estimated": true
   }
  },
  {
   "type": "Feature",
   "geometry": {
    "type": "Point",
    "coordinates": [
     133.6533323,
     -32.1469215
    ]
   },
   "properties": {
    "name": "Thevenard",
    "operator": "Bunge (ex-Viterra)",
    "role": "port",
    "status": "active_2025_26",
    "coord_precision": "facility",
    "coord_source": "operator API mobilews.viterra.com.au/api/Sites/cdf8a42b-475a-41af-b80b-a91301835864 (retrieved 2026-08-19)",
    "commodities_2025_26": [
     "WH",
     "LE",
     "BA"
    ],
    "commodities_source": "https://www.bunge.com.au/agriculture/delivering-to-sa-vic-sites/segregations-and-opening-hours (live table read 2026-08-19)",
    "capacity_t": 335925,
    "capacity_provenance": "ACCC Final Determinations Port Lincoln & Thevenard, 20 Jul 2021, Table 3.1 (https://www.accc.gov.au/system/files/Viterra%20Final%20Determinations%20for%20Port%20Lincoln%20and%20Thevenard.pdf); T-Ports: https://tports.com/lucky-bay/ + ACCC ibid.",
    "region": "western",
    "nearest_osm_silo_m": 289,
    "operating_seasons": [
     "2016/17",
     "2017/18",
     "2019/20",
     "2020/21",
     "2021/22",
     "2022/23",
     "2023/24",
     "2024/25",
     "2025/26"
    ],
    "operating_seasons_source": "operator weekly harvest reports (data/processed/receivals_notes.jsonl); positive evidence only - absence of a mention is NOT evidence of closure",
    "operating_evidence": "[2025-10-19] Harvest in South Australia has officially kicked off, after we received our first delivery for the 2025/26 season with a load of lentils delivered to our Thevenard site on Monday 1",
    "district": "WEP",
    "capacity_estimated": false
   }
  },
  {
   "type": "Feature",
   "geometry": {
    "type": "Point",
    "coordinates": [
     136.2836835,
     -33.7002126
    ]
   },
   "properties": {
    "name": "Rudall",
    "operator": "Bunge (ex-Viterra)",
    "role": "upcountry",
    "status": "active_2025_26",
    "coord_precision": "facility",
    "coord_source": "operator API mobilews.viterra.com.au/api/Sites/df92fd39-c550-425c-9fdc-a91301835864 (retrieved 2026-08-19)",
    "commodities_2025_26": [
     "WH",
     "BA",
     "CA"
    ],
    "commodities_source": "https://www.bunge.com.au/agriculture/delivering-to-sa-vic-sites/segregations-and-opening-hours (live table read 2026-08-19)",
    "capacity_t": 166200,
    "capacity_provenance": "estimated (not published): A4 method - long-run district receivals share (mean PIRSA district production 2022/23-2025/26) allocated across that district's Bunge upcountry sites, scaled so all 21 of them total 2.54 Mt (max Western season receivals 3.27 Mt - published Western port storage 0.73 Mt)",
    "region": "western",
    "nearest_osm_silo_m": 1586,
    "operating_seasons": [
     "2016/17",
     "2020/21",
     "2022/23",
     "2023/24",
     "2024/25",
     "2025/26"
    ],
    "operating_seasons_source": "operator weekly harvest reports (data/processed/receivals_notes.jsonl); positive evidence only - absence of a mention is NOT evidence of closure",
    "operating_evidence": "[2025-11-09] Another five sites received their first 2025/26 season deliveries; Lock, Rudall, Tumby Bay, Wirrulla and Cummins on the Eyre Peninsula.",
    "district": "EEP",
    "capacity_estimated": true
   }
  },
  {
   "type": "Feature",
   "geometry": {
    "type": "Point",
    "coordinates": [
     135.8659241,
     -34.7221455
    ]
   },
   "properties": {
    "name": "Port Lincoln",
    "operator": "Bunge (ex-Viterra)",
    "role": "port",
    "status": "active_2025_26",
    "coord_precision": "facility",
    "coord_source": "operator API mobilews.viterra.com.au/api/Sites/ee8ccbe9-68ed-4769-acd1-a91301835864 (retrieved 2026-08-19)",
    "commodities_2025_26": [
     "WH",
     "BA",
     "CA"
    ],
    "commodities_source": "https://www.bunge.com.au/agriculture/delivering-to-sa-vic-sites/segregations-and-opening-hours (live table read 2026-08-19)",
    "capacity_t": 395600,
    "capacity_provenance": "ACCC Final Determinations Port Lincoln & Thevenard, 20 Jul 2021, Table 3.1 (https://www.accc.gov.au/system/files/Viterra%20Final%20Determinations%20for%20Port%20Lincoln%20and%20Thevenard.pdf); T-Ports: https://tports.com/lucky-bay/ + ACCC ibid.",
    "region": "western",
    "nearest_osm_silo_m": 121,
    "operating_seasons": [
     "2016/17",
     "2017/18",
     "2018/19",
     "2019/20",
     "2020/21",
     "2021/22",
     "2022/23",
     "2023/24",
     "2024/25",
     "2025/26"
    ],
    "operating_seasons_source": "operator weekly harvest reports (data/processed/receivals_notes.jsonl); positive evidence only - absence of a mention is NOT evidence of closure",
    "operating_evidence": "[2025-10-26] Our Port Lincoln, Port Neill and Port Pirie sites also received their first deliveries for the harvest during the week.",
    "district": "LEP",
    "capacity_estimated": false
   }
  },
  {
   "type": "Feature",
   "geometry": {
    "type": "Point",
    "coordinates": [
     134.2213759,
     -32.7938981
    ]
   },
   "properties": {
    "name": "Streaky Bay",
    "operator": "Bunge (ex-Viterra)",
    "role": "upcountry",
    "status": "active_2025_26",
    "coord_precision": "facility",
    "coord_source": "operator API mobilews.viterra.com.au/api/Sites/f362da90-a98c-47e1-bfa4-a91301835864 (retrieved 2026-08-19)",
    "commodities_2025_26": [
     "WH",
     "BA"
    ],
    "commodities_source": "https://www.bunge.com.au/agriculture/delivering-to-sa-vic-sites/segregations-and-opening-hours (live table read 2026-08-19)",
    "capacity_t": 72700,
    "capacity_provenance": "estimated (not published): A4 method - long-run district receivals share (mean PIRSA district production 2022/23-2025/26) allocated across that district's Bunge upcountry sites, scaled so all 21 of them total 2.54 Mt (max Western season receivals 3.27 Mt - published Western port storage 0.73 Mt)",
    "region": "western",
    "nearest_osm_silo_m": 140,
    "operating_seasons": [
     "2020/21",
     "2022/23",
     "2023/24",
     "2025/26"
    ],
    "operating_seasons_source": "operator weekly harvest reports (data/processed/receivals_notes.jsonl); positive evidence only - absence of a mention is NOT evidence of closure",
    "operating_evidence": "[2025-11-23] \u201cHarvest has now kicked off at our Darke Peak, Streaky Bay, Yeelanna, Karoonda and Monarto South sites, bringing us to 40 sites receiving grain,\u201d Gavin says.",
    "district": "WEP",
    "capacity_estimated": true
   }
  },
  {
   "type": "Feature",
   "geometry": {
    "type": "Point",
    "coordinates": [
     137.0441998,
     -33.7057452
    ]
   },
   "properties": {
    "name": "Lucky Bay (T-Ports port)",
    "operator": "T-Ports",
    "role": "port",
    "status": "active",
    "coord_precision": "town",
    "coord_source": "Nominatim/OSM 'Lucky Bay, South Australia' hamlet node (facility adjoins hamlet)",
    "commodities_2025_26": [
     "WH",
     "BA",
     "LE"
    ],
    "commodities_source": "T-Ports 2025/26 segregations via tports.com/harvest (read 2026-08-19)",
    "capacity_t": 384000,
    "capacity_provenance": "https://tports.com/lucky-bay/ (24,000 t port silos + 360,000 t bunkers 2 km away); ACCC 2021 Table 3.1 confirms 384,000 t",
    "region": "western",
    "sources": [
     "https://tports.com/lucky-bay/",
     "https://tports.com/harvest/",
     "https://www.accc.gov.au/system/files/Viterra%20Final%20Determinations%20for%20Port%20Lincoln%20and%20Thevenard.pdf"
    ],
    "notes": "Transshipment port opened 2019; no berth for ocean vessels - TSV MV Lucky Eyre shuttles to anchorage",
    "nearest_osm_silo_m": 11581,
    "operating_seasons": [],
    "operating_seasons_source": "operator weekly harvest reports (data/processed/receivals_notes.jsonl); positive evidence only - absence of a mention is NOT evidence of closure",
    "operating_evidence": null,
    "district": "EEP",
    "capacity_estimated": false
   }
  },
  {
   "type": "Feature",
   "geometry": {
    "type": "Point",
    "coordinates": [
     135.7555,
     -33.5673
    ]
   },
   "properties": {
    "name": "Lock (T-Ports bunker)",
    "operator": "T-Ports",
    "role": "upcountry",
    "status": "closed_2025_26_season",
    "coord_precision": "town",
    "coord_source": "Nominatim/OSM town node; exact pad unpublished",
    "commodities_2025_26": [
     "WH",
     "BA"
    ],
    "commodities_source": "https://www.graincentral.com/news/t-ports-adds-bunker-site-at-kimba-extra-storage-at-lock/",
    "capacity_t": 140000,
    "capacity_provenance": "https://tports.com/lucky-bay/ ('Lock bunker site: 140,000 tonnes in six bunkers')",
    "region": "western",
    "sources": [
     "https://tports.com/lucky-bay/",
     "https://tports.com/harvest/",
     "https://web.archive.org/web/20260114125403/https://tports.com/harvest/"
    ],
    "notes": "'Site closed for 25/26 season' per tports.com/harvest; operated prior seasons from 2019. Read live 2026-08-19 and 2026-08-31, and confirmed IN SEASON on the Internet Archive snapshot of 14 January 2026 (mid-harvest), where Lucky Bay and Wallaroo carry 'By Appt.' hours and live segregations while Lock and Kimba carry the closure line and none.",
    "nearest_osm_silo_m": 220,
    "operating_seasons": [],
    "operating_seasons_source": "operator weekly harvest reports (data/processed/receivals_notes.jsonl); positive evidence only - absence of a mention is NOT evidence of closure",
    "operating_evidence": null,
    "district": "WEP",
    "capacity_estimated": false
   }
  },
  {
   "type": "Feature",
   "geometry": {
    "type": "Point",
    "coordinates": [
     136.4168,
     -33.1403
    ]
   },
   "properties": {
    "name": "Kimba (T-Ports bunker)",
    "operator": "T-Ports",
    "role": "upcountry",
    "status": "closed_2025_26_season",
    "coord_precision": "town",
    "coord_source": "Nominatim/OSM town node; facility 'east of Kimba township' per Grain Central",
    "commodities_2025_26": [
     "WH",
     "BA"
    ],
    "commodities_source": "https://www.graincentral.com/news/t-ports-adds-bunker-site-at-kimba-extra-storage-at-lock/",
    "capacity_t": 150000,
    "capacity_provenance": "https://tports.com/lucky-bay/ ('Kimba bunker site: 150,000 tonnes in four bunkers')",
    "region": "western",
    "sources": [
     "https://tports.com/lucky-bay/",
     "https://tports.com/harvest/",
     "https://www.graincentral.com/news/t-ports-adds-bunker-site-at-kimba-extra-storage-at-lock/",
     "https://web.archive.org/web/20260114125403/https://tports.com/harvest/"
    ],
    "notes": "Built for 2021 harvest; 'Site closed for 25/26 season' per tports.com/harvest, on the same line the page carries for Lock (verified 2026-08-31). Confirmed IN SEASON on the Internet Archive snapshot of 14 January 2026 (mid-harvest) - the closure is not an off-season page state. Until 2026-08-31 this entry carried the closed_2025_26_season status with NO closure evidence recorded - only Lock's quote had been transcribed - while every 2025/26 finding in docs/r0_choice_geometry.md depended on both bunkers being closed.",
    "nearest_osm_silo_m": 440,
    "operating_seasons": [],
    "operating_seasons_source": "operator weekly harvest reports (data/processed/receivals_notes.jsonl); positive evidence only - absence of a mention is NOT evidence of closure",
    "operating_evidence": null,
    "district": "EEP",
    "capacity_estimated": false
   }
  },
  {
   "type": "Feature",
   "geometry": {
    "type": "Point",
    "coordinates": [
     135.1541,
     -32.8538
    ]
   },
   "properties": {
    "name": "Minnipa (closed)",
    "operator": "ex-Viterra",
    "role": "closed",
    "status": "closed_2019",
    "coord_precision": "town",
    "coord_source": "Nominatim/OSM town node",
    "commodities_2025_26": [],
    "commodities_source": null,
    "capacity_t": null,
    "capacity_provenance": null,
    "region": "western",
    "sources": [
     "https://www.stockjournal.com.au/story/6202314/freight-redirection-behind-viterras-17-silo-closures/",
     "https://www.stockjournal.com.au/story/6202864/northern-ep-to-lose-six-silos/",
     "https://www.farmonline.com.au/story/6204914/freight-redirection-behind-viterras-17-silo-closures/"
    ],
    "notes": "Named closed in Viterra's June 2019 rationalisation of 17 up-country sites, six of them on EP. Primary source: Alisha Fogden, 'SILO SLASH: 17 Viterra grain sites to close', Stock Journal, 6 Jun 2019 (upd. 7 Jun 2019), and 'Croppers angry as upper EP silos take a hit', Stock Journal, 6 Jun 2019 - 'The sites of Minnipa, Kyancutta, Cungena, Waddikee, Kielpa and Wharminda have been closed.' The Farm Online item is the 7 Jun 2019 syndication of the first ('This story first appeared on Stock Journal') and is listed as a reprint, not as an independent outlet. Viterra's stated reasons, per operations manager Michael Hill: average truck size up 30 per cent since 2010 with bigger trucks going to bigger sites; quality-management and food-safety requirements; the closed sites were 'less than 2pc of total receivals (based on a five-year average)'. One of only TWO of the six that were operating the year before: 'six sites open last year at Minnipa, Kyancutta, Brinkworth, Paskeville, Millicent and Walpeup in Vic would not play a future role in the Viterra network'. NO PUBLISHED SOURCE ATTRIBUTES THE 2019 CLOSURES TO THE MAY 2019 EP RAIL SHUTDOWN. Neither Stock Journal story gives rail as a cause; 'freight redirection' survives only in a URL slug and appears nowhere in either body. Rail is mentioned once across both stories, by Minnipa cropper Matt Cook, about a different and earlier local closure. Any rail link is this project's inference and must be labelled as one. (Corrected 2026-08-31: this note previously read 'Closed in Viterra's 2019 network rationalisation after EP rail shutdown'. The trailing clause was unsourced and is withdrawn.)",
    "operating_seasons": [],
    "operating_seasons_source": "operator weekly harvest reports (data/processed/receivals_notes.jsonl); positive evidence only - absence of a mention is NOT evidence of closure",
    "operating_evidence": null,
    "district": "WEP",
    "capacity_estimated": true
   }
  },
  {
   "type": "Feature",
   "geometry": {
    "type": "Point",
    "coordinates": [
     135.5553,
     -33.1335
    ]
   },
   "properties": {
    "name": "Kyancutta (closed)",
    "operator": "ex-Viterra",
    "role": "closed",
    "status": "closed_2019",
    "coord_precision": "town",
    "coord_source": "Nominatim/OSM town node",
    "commodities_2025_26": [],
    "commodities_source": null,
    "capacity_t": null,
    "capacity_provenance": null,
    "region": "western",
    "sources": [
     "https://www.stockjournal.com.au/story/6202314/freight-redirection-behind-viterras-17-silo-closures/",
     "https://www.stockjournal.com.au/story/6202864/northern-ep-to-lose-six-silos/",
     "https://www.farmonline.com.au/story/6204914/freight-redirection-behind-viterras-17-silo-closures/"
    ],
    "notes": "Named closed in Viterra's June 2019 rationalisation of 17 up-country sites, six of them on EP. Primary source: Alisha Fogden, 'SILO SLASH: 17 Viterra grain sites to close', Stock Journal, 6 Jun 2019 (upd. 7 Jun 2019), and 'Croppers angry as upper EP silos take a hit', Stock Journal, 6 Jun 2019 - 'The sites of Minnipa, Kyancutta, Cungena, Waddikee, Kielpa and Wharminda have been closed.' The Farm Online item is the 7 Jun 2019 syndication of the first ('This story first appeared on Stock Journal') and is listed as a reprint, not as an independent outlet. Viterra's stated reasons, per operations manager Michael Hill: average truck size up 30 per cent since 2010 with bigger trucks going to bigger sites; quality-management and food-safety requirements; the closed sites were 'less than 2pc of total receivals (based on a five-year average)'. One of only TWO of the six that were operating the year before: 'six sites open last year at Minnipa, Kyancutta, Brinkworth, Paskeville, Millicent and Walpeup in Vic would not play a future role in the Viterra network'. NO PUBLISHED SOURCE ATTRIBUTES THE 2019 CLOSURES TO THE MAY 2019 EP RAIL SHUTDOWN. Neither Stock Journal story gives rail as a cause; 'freight redirection' survives only in a URL slug and appears nowhere in either body. Rail is mentioned once across both stories, by Minnipa cropper Matt Cook, about a different and earlier local closure. Any rail link is this project's inference and must be labelled as one. Checked against the operator's weekly reports and NOT contradicted: its only post-2019 mention is 'east of Kyancutta', a paddock location, correctly rejected under A12's evidence rule.",
    "operating_seasons": [
     "2016/17"
    ],
    "operating_seasons_source": "operator weekly harvest reports (data/processed/receivals_notes.jsonl); positive evidence only - absence of a mention is NOT evidence of closure",
    "operating_evidence": "[2016-10-16] The first load for the 2016/17 season was a load of peas into Kyancutta on the Eyre Peninsula.",
    "district": "WEP",
    "capacity_estimated": true
   }
  },
  {
   "type": "Feature",
   "geometry": {
    "type": "Point",
    "coordinates": [
     134.7098,
     -32.5854
    ]
   },
   "properties": {
    "name": "Cungena (closed)",
    "operator": "ex-Viterra",
    "role": "closed",
    "status": "closed_2019",
    "coord_precision": "town",
    "coord_source": "Nominatim/OSM town node",
    "commodities_2025_26": [],
    "commodities_source": null,
    "capacity_t": null,
    "capacity_provenance": null,
    "region": "western",
    "sources": [
     "https://www.stockjournal.com.au/story/6202314/freight-redirection-behind-viterras-17-silo-closures/",
     "https://www.stockjournal.com.au/story/6202864/northern-ep-to-lose-six-silos/",
     "https://www.farmonline.com.au/story/6204914/freight-redirection-behind-viterras-17-silo-closures/"
    ],
    "notes": "Named closed in Viterra's June 2019 rationalisation of 17 up-country sites, six of them on EP. Primary source: Alisha Fogden, 'SILO SLASH: 17 Viterra grain sites to close', Stock Journal, 6 Jun 2019 (upd. 7 Jun 2019), and 'Croppers angry as upper EP silos take a hit', Stock Journal, 6 Jun 2019 - 'The sites of Minnipa, Kyancutta, Cungena, Waddikee, Kielpa and Wharminda have been closed.' The Farm Online item is the 7 Jun 2019 syndication of the first ('This story first appeared on Stock Journal') and is listed as a reprint, not as an independent outlet. Viterra's stated reasons, per operations manager Michael Hill: average truck size up 30 per cent since 2010 with bigger trucks going to bigger sites; quality-management and food-safety requirements; the closed sites were 'less than 2pc of total receivals (based on a five-year average)'. NOT operating the year before: it is in the group of 11 'that were not open the year prior' that 'would also be closed permanently'. A pre-2019 network state that counts it as open overstates the 2018/19 network. NO PUBLISHED SOURCE ATTRIBUTES THE 2019 CLOSURES TO THE MAY 2019 EP RAIL SHUTDOWN. Neither Stock Journal story gives rail as a cause; 'freight redirection' survives only in a URL slug and appears nowhere in either body. Rail is mentioned once across both stories, by Minnipa cropper Matt Cook, about a different and earlier local closure. Any rail link is this project's inference and must be labelled as one. CONTRADICTED, AND THE CONTRADICTION IS UNRESOLVED: Viterra's own weekly harvest report for the week ending 13 Nov 2022 names Cungena among sites that 'received their first new season deliveries'. Both sources are published and neither is retracted. What they jointly support is that it was closed in June 2019 and described as permanent, that it nonetheless took first new-season deliveries in 2022/23, and that no published evidence has it operating in any other season. The bare 'closed permanently 2019' tag this note used to carry is wrong as written; the defensible statement is a season range. See data/SOURCES.md 'cungena-status-contradiction'. Corrected 2026-08-31.",
    "operating_seasons": [
     "2022/23"
    ],
    "operating_seasons_source": "operator weekly harvest reports (data/processed/receivals_notes.jsonl); positive evidence only - absence of a mention is NOT evidence of closure",
    "operating_evidence": "[2022-11-13] In Viterra\u2019s Central region, Ardrossan, Balaklava, Bowmans, Crystal Brook, Port Giles and Snowtown received their first new season deliveries, as well as Cungena, Elliston, Port Ne",
    "district": "WEP",
    "capacity_estimated": true
   }
  },
  {
   "type": "Feature",
   "geometry": {
    "type": "Point",
    "coordinates": [
     136.3227,
     -33.3495
    ]
   },
   "properties": {
    "name": "Waddikee (closed)",
    "operator": "ex-Viterra",
    "role": "closed",
    "status": "closed_2019",
    "coord_precision": "town",
    "coord_source": "Nominatim/OSM town node",
    "commodities_2025_26": [],
    "commodities_source": null,
    "capacity_t": null,
    "capacity_provenance": null,
    "region": "western",
    "sources": [
     "https://www.stockjournal.com.au/story/6202314/freight-redirection-behind-viterras-17-silo-closures/",
     "https://www.stockjournal.com.au/story/6202864/northern-ep-to-lose-six-silos/",
     "https://www.farmonline.com.au/story/6204914/freight-redirection-behind-viterras-17-silo-closures/"
    ],
    "notes": "Named closed in Viterra's June 2019 rationalisation of 17 up-country sites, six of them on EP. Primary source: Alisha Fogden, 'SILO SLASH: 17 Viterra grain sites to close', Stock Journal, 6 Jun 2019 (upd. 7 Jun 2019), and 'Croppers angry as upper EP silos take a hit', Stock Journal, 6 Jun 2019 - 'The sites of Minnipa, Kyancutta, Cungena, Waddikee, Kielpa and Wharminda have been closed.' The Farm Online item is the 7 Jun 2019 syndication of the first ('This story first appeared on Stock Journal') and is listed as a reprint, not as an independent outlet. Viterra's stated reasons, per operations manager Michael Hill: average truck size up 30 per cent since 2010 with bigger trucks going to bigger sites; quality-management and food-safety requirements; the closed sites were 'less than 2pc of total receivals (based on a five-year average)'. NOT operating the year before: it is in the group of 11 'that were not open the year prior' that 'would also be closed permanently'. A pre-2019 network state that counts it as open overstates the 2018/19 network. NO PUBLISHED SOURCE ATTRIBUTES THE 2019 CLOSURES TO THE MAY 2019 EP RAIL SHUTDOWN. Neither Stock Journal story gives rail as a cause; 'freight redirection' survives only in a URL slug and appears nowhere in either body. Rail is mentioned once across both stories, by Minnipa cropper Matt Cook, about a different and earlier local closure. Any rail link is this project's inference and must be labelled as one. (Corrected 2026-08-31: this note previously added 'rail-served until May 2019'. That clause is withdrawn - it is contradicted by the same story that closes the site, since Waddikee is in the group that was NOT open the year prior and so was not receiving grain in 2018/19 and cannot have been rail-served up to May 2019; and Waddikee is not among the rail stations named in the 2018 Eyre Peninsula Freight Study, which lists Wudinna, Kyancutta, Warramboo, Lock, Murdinga, Tooligie and Yeelanna - 'Waddikee Road' appears there only as a road name. No source in this repo supports the clause.)",
    "operating_seasons": [],
    "operating_seasons_source": "operator weekly harvest reports (data/processed/receivals_notes.jsonl); positive evidence only - absence of a mention is NOT evidence of closure",
    "operating_evidence": null,
    "district": "EEP",
    "capacity_estimated": true
   }
  },
  {
   "type": "Feature",
   "geometry": {
    "type": "Point",
    "coordinates": [
     136.2258,
     -33.5877
    ]
   },
   "properties": {
    "name": "Kielpa (closed)",
    "operator": "ex-Viterra",
    "role": "closed",
    "status": "closed_2019",
    "coord_precision": "town",
    "coord_source": "Nominatim/OSM town node",
    "commodities_2025_26": [],
    "commodities_source": null,
    "capacity_t": null,
    "capacity_provenance": null,
    "region": "western",
    "sources": [
     "https://www.stockjournal.com.au/story/6202314/freight-redirection-behind-viterras-17-silo-closures/",
     "https://www.stockjournal.com.au/story/6202864/northern-ep-to-lose-six-silos/",
     "https://www.farmonline.com.au/story/6204914/freight-redirection-behind-viterras-17-silo-closures/"
    ],
    "notes": "Named closed in Viterra's June 2019 rationalisation of 17 up-country sites, six of them on EP. Primary source: Alisha Fogden, 'SILO SLASH: 17 Viterra grain sites to close', Stock Journal, 6 Jun 2019 (upd. 7 Jun 2019), and 'Croppers angry as upper EP silos take a hit', Stock Journal, 6 Jun 2019 - 'The sites of Minnipa, Kyancutta, Cungena, Waddikee, Kielpa and Wharminda have been closed.' The Farm Online item is the 7 Jun 2019 syndication of the first ('This story first appeared on Stock Journal') and is listed as a reprint, not as an independent outlet. Viterra's stated reasons, per operations manager Michael Hill: average truck size up 30 per cent since 2010 with bigger trucks going to bigger sites; quality-management and food-safety requirements; the closed sites were 'less than 2pc of total receivals (based on a five-year average)'. NOT operating the year before: it is in the group of 11 'that were not open the year prior' that 'would also be closed permanently'. A pre-2019 network state that counts it as open overstates the 2018/19 network. NO PUBLISHED SOURCE ATTRIBUTES THE 2019 CLOSURES TO THE MAY 2019 EP RAIL SHUTDOWN. Neither Stock Journal story gives rail as a cause; 'freight redirection' survives only in a URL slug and appears nowhere in either body. Rail is mentioned once across both stories, by Minnipa cropper Matt Cook, about a different and earlier local closure. Any rail link is this project's inference and must be labelled as one.",
    "operating_seasons": [],
    "operating_seasons_source": "operator weekly harvest reports (data/processed/receivals_notes.jsonl); positive evidence only - absence of a mention is NOT evidence of closure",
    "operating_evidence": null,
    "district": "EEP",
    "capacity_estimated": true
   }
  },
  {
   "type": "Feature",
   "geometry": {
    "type": "Point",
    "coordinates": [
     136.228,
     -33.9432
    ]
   },
   "properties": {
    "name": "Wharminda (closed)",
    "operator": "ex-Viterra",
    "role": "closed",
    "status": "closed_2019",
    "coord_precision": "town",
    "coord_source": "Nominatim/OSM town node",
    "commodities_2025_26": [],
    "commodities_source": null,
    "capacity_t": null,
    "capacity_provenance": null,
    "region": "western",
    "sources": [
     "https://www.stockjournal.com.au/story/6202314/freight-redirection-behind-viterras-17-silo-closures/",
     "https://www.stockjournal.com.au/story/6202864/northern-ep-to-lose-six-silos/",
     "https://www.farmonline.com.au/story/6204914/freight-redirection-behind-viterras-17-silo-closures/"
    ],
    "notes": "Named closed in Viterra's June 2019 rationalisation of 17 up-country sites, six of them on EP. Primary source: Alisha Fogden, 'SILO SLASH: 17 Viterra grain sites to close', Stock Journal, 6 Jun 2019 (upd. 7 Jun 2019), and 'Croppers angry as upper EP silos take a hit', Stock Journal, 6 Jun 2019 - 'The sites of Minnipa, Kyancutta, Cungena, Waddikee, Kielpa and Wharminda have been closed.' The Farm Online item is the 7 Jun 2019 syndication of the first ('This story first appeared on Stock Journal') and is listed as a reprint, not as an independent outlet. Viterra's stated reasons, per operations manager Michael Hill: average truck size up 30 per cent since 2010 with bigger trucks going to bigger sites; quality-management and food-safety requirements; the closed sites were 'less than 2pc of total receivals (based on a five-year average)'. NOT operating the year before: it is in the group of 11 'that were not open the year prior' that 'would also be closed permanently'. A pre-2019 network state that counts it as open overstates the 2018/19 network. NO PUBLISHED SOURCE ATTRIBUTES THE 2019 CLOSURES TO THE MAY 2019 EP RAIL SHUTDOWN. Neither Stock Journal story gives rail as a cause; 'freight redirection' survives only in a URL slug and appears nowhere in either body. Rail is mentioned once across both stories, by Minnipa cropper Matt Cook, about a different and earlier local closure. Any rail link is this project's inference and must be labelled as one. Named once in ten seasons of the operator's weekly reports, in 2016/17.",
    "operating_seasons": [
     "2016/17"
    ],
    "operating_seasons_source": "operator weekly harvest reports (data/processed/receivals_notes.jsonl); positive evidence only - absence of a mention is NOT evidence of closure",
    "operating_evidence": "[2016-11-13] Lentils have now started in the region, with Wharminda receiving some lentil deliveries last week.",
    "district": "EEP",
    "capacity_estimated": true
   }
  }
 ]
}